NORAD_CAT_ID,OBJECT_NAME,OBJECT_TYPE,EPOCH,MEAN_MOTION,ECCENTRICITY,INCLINATION,RA_OF_ASC_NODE,ARG_OF_PERICENTER,MEAN_ANOMALY,BSTAR,MEAN_MOTION_DOT,MEAN_MOTION_DDOT,TLE_LINE0,TLE_LINE1,TLE_LINE2,SEMIMAJOR_AXIS,PERIOD,APOGEE,PERIGEE,DECAYED
52994.0,STARLINK-4256,PAYLOAD,2022-09-20 14:00:01,15.08848503,0.0001853,53.2189,17.8996,41.044,295.4803,-0.0010138999999999,-0.00016392,0.0,0 STARLINK-4256,1 52994U 22076J   22263.58334491 -.00016392  00000-0 -10139-2 0  9997,2 52994  53.2189  17.8996 0001853  41.0440 295.4803 15.08848503  1306,6917.854,95.437,541.001,538.438,0.0
52994.0,STARLINK-4256,PAYLOAD,2022-09-20 22:00:01,15.0885522,0.0001831999999999,53.219,16.4029,36.8826,311.3007,-0.0026858,-0.00042797,0.0,0 STARLINK-4256,1 52994U 22076J   22263.91668981 -.00042797  00000-0 -26858-2 0  9991,2 52994  53.2190  16.4029 0001832  36.8826 311.3007 15.08855220  1305,6917.834,95.437,540.966,538.432,0.0
52994.0,STARLINK-4256,PAYLOAD,2022-09-21 22:00:00,15.08836149,0.0001795,53.2176,11.9057,37.7389,345.1266,0.0007262,0.00011287,0.0,0 STARLINK-4256,1 52994U 22076J   22264.91667824  .00011287  00000-0  72620-3 0  9994,2 52994  53.2176  11.9057 0001795  37.7389 345.1266 15.08836149  1303,6917.892,95.438,540.999,538.515,0.0
52994.0,STARLINK-4256,PAYLOAD,2022-09-22 06:00:00,15.0880981,0.0001858,53.2181,10.4165,39.199,355.2439,0.0026888,0.00042729,0.0,0 STARLINK-4256,1 52994U 22076J   22265.25001157  .00042729  00000-0  26888-2 0  9992,2 52994  53.2181  10.4165 0001858  39.1990 355.2439 15.08809810 12421,6917.973000000001,95.439,541.123,538.552,0.0
52994.0,STARLINK-4256,PAYLOAD,2022-09-22 14:00:01,15.08839027,0.0002063,53.2182,8.9219,35.6338,10.3887,-0.00046423,-7.669e-05,0.0,0 STARLINK-4256,1 52994U 22076J   22265.58334491 -.00007669  00000-0 -46423-3 0  9992,2 52994  53.2182   8.9219 0002063  35.6338  10.3887 15.08839027  1304,6917.8830000000025,95.438,541.1759999999998,538.321,0.0
52994.0,STARLINK-4256,PAYLOAD,2022-09-22 22:00:00,15.08859225,0.0001996,53.2181,7.425,33.0128,24.5973,-0.0038741,-0.00061453,0.0,0 STARLINK-4256,1 52994U 22076J   22265.91667824 -.00061453  00000-0 -38741-2 0  9992,2 52994  53.2181   7.4250 0001996  33.0128  24.5973 15.08859225  1300,6917.821999999999,95.436,541.067,538.306,0.0
52994.0,STARLINK-4256,PAYLOAD,2022-09-23 06:00:00,15.08874845,0.0002,53.2173,5.9171,35.6754,33.545,-0.0033968,-0.00053996,0.0,0 STARLINK-4256,1 52994U 22076J   22266.25001157 -.00053996  00000-0 -33968-2 0  9990,2 52994  53.2173   5.9171 0002000  35.6754  33.5450 15.08874845 12572,6917.774,95.435,541.0219999999998,538.255,0.0
52994.0,STARLINK-4256,PAYLOAD,2022-09-23 14:00:01,15.08835967,0.0002026,53.2184,4.4332,33.6659,47.1178,0.00014454,2.013e-05,0.0,0 STARLINK-4256,1 52994U 22076J   22266.58334491  .00002013  00000-0  14454-3 0  9998,2 52994  53.2184   4.4332 0002026  33.6659  47.1178 15.08835967  1306,6917.893,95.438,541.159,538.356,0.0
52994.0,STARLINK-4256,PAYLOAD,2022-09-23 22:00:00,15.088603099999998,0.0001978,53.2182,2.9361,32.8657,59.5049,-0.0013737,-0.00022097,0.0,0 STARLINK-4256,1 52994U 22076J   22266.91667824 -.00022097  00000-0 -13737-2 0  9992,2 52994  53.2182   2.9361 0001978  32.8657  59.5049 15.08860310 12679,6917.818,95.436,541.052,538.315,0.0
52994.0,STARLINK-4256,PAYLOAD,2022-09-24 14:00:01,15.08880087,0.0002086999999999,53.2183,359.9444,35.4938,80.1765,-0.0019859,-0.0003179,0.0,0 STARLINK-4256,1 52994U 22076J   22267.58335648 -.00031790  00000-0 -19859-2 0  9993,2 52994  53.2183 359.9444 0002087  35.4938  80.1765 15.08880087 12780,6917.7580000000025,95.435,541.067,538.179,0.0
52994.0,STARLINK-4256,PAYLOAD,2022-09-24 22:00:00,15.08871741,0.0002092,53.2179,358.4473,38.1183,89.1188,-0.0043042,-0.00068203,0.0,0 STARLINK-4256,1 52994U 22076J   22267.91667824 -.00068203  00000-0 -43042-2 0  9994,2 52994  53.2179 358.4473 0002092  38.1183  89.1188 15.08871741  1300,6917.783,95.436,541.096,538.201,0.0
52994.0,STARLINK-4256,PAYLOAD,2022-09-25 14:00:01,15.08852845,0.0002207,53.2178,355.4558,39.0249,111.4185,-0.00094645,-0.00015325,0.0,0 STARLINK-4256,1 52994U 22076J   22268.58334491 -.00015325  00000-0 -94645-3 0  9992,2 52994  53.2178 355.4558 0002207  39.0249 111.4185 15.08852845 12932,6917.840999999999,95.437,541.2330000000002,538.179,0.0
52994.0,STARLINK-4256,PAYLOAD,2022-09-25 22:00:01,15.08848075,0.0002035,53.2173,353.9579,37.4517,124.6468,-0.0045518,-0.00072024,0.0,0 STARLINK-4256,1 52994U 22076J   22268.91668981 -.00072024  00000-0 -45518-2 0  9996,2 52994  53.2173 353.9579 0002035  37.4517 124.6468 15.08848075  1301,6917.856,95.437,541.128,538.313,0.0
52994.0,STARLINK-4256,PAYLOAD,2022-09-26 14:00:01,15.08818533,0.0002197,53.2173,350.967,36.1487,149.0978,0.0016000999999999,0.00025255,0.0,0 STARLINK-4256,1 52994U 22076J   22269.58334491  .00025255  00000-0  16001-2 0  9993,2 52994  53.2173 350.9670 0002197  36.1487 149.0978 15.08818533  1304,6917.946,95.439,541.331,538.2909999999998,0.0
52994.0,STARLINK-4256,PAYLOAD,2022-09-26 22:00:00,15.08917686,0.0002186999999999,53.2171,349.4633,35.8127,161.0158,-0.013146,-0.00204083,0.0,0 STARLINK-4256,1 52994U 22076J   22269.91667824 -.00204083  00000-0 -13146-1 0  9995,2 52994  53.2171 349.4633 0002187  35.8127 161.0158 15.08917686 13137,6917.643,95.433,541.021,537.995,0.0
52994.0,STARLINK-4256,PAYLOAD,2022-09-27 00:00:00,15.08825703,0.0002008999999999,53.2172,349.095,36.0434,253.6905,-0.00059588,-9.756e-05,0.0,0 STARLINK-4256,1 52994U 22076J   22270.00001157 -.00009756  00000-0 -59588-3 0  9990,2 52994  53.2172 349.0950 0002009  36.0434 253.6905 15.08825703  1305,6917.924,95.438,541.179,538.399,0.0
52994.0,STARLINK-4256,PAYLOAD,2022-09-27 06:00:00,15.08825072,0.000199,53.2172,347.9727,38.8,169.6107,0.0008017,0.00012489,0.0,0 STARLINK-4256,1 52994U 22076J   22270.25001157  .00012489  00000-0  80170-3 0  9993,2 52994  53.2172 347.9727 0001990  38.8000 169.6107 15.08825072 13189,6917.926,95.438,541.168,538.414,0.0
52994.0,STARLINK-4256,PAYLOAD,2022-09-27 14:00:01,15.08814835,0.0002242,53.2171,346.4781,34.0722,185.9249,0.0021134,0.00033484,0.0,0 STARLINK-4256,1 52994U 22076J   22270.58334491  .00033484  00000-0  21134-2 0  9991,2 52994  53.2171 346.4781 0002242  34.0722 185.9249 15.08814835  1306,6917.956999999999,95.439,541.373,538.271,0.0
52994.0,STARLINK-4256,PAYLOAD,2022-09-27 22:00:01,15.08875614,0.0002116,53.217,344.9802,33.7035,197.9542,-0.003341,-0.00053122,0.0,0 STARLINK-4256,1 52994U 22076J   22270.91668981 -.00053122  00000-0 -33410-2 0  9995,2 52994  53.2170 344.9802 0002116  33.7035 197.9542 15.08875614  1306,6917.772,95.435,541.1,538.173,0.0
52994.0,STARLINK-4256,PAYLOAD,2022-09-28 14:00:01,15.08804911,0.0002254999999999,53.2171,341.9889,29.8127,224.9595,0.0029245,0.00046519,0.0,0 STARLINK-4256,1 52994U 22076J   22271.58334491  .00046519  00000-0  29245-2 0  9996,2 52994  53.2171 341.9889 0002255  29.8127 224.9595 15.08804911  1302,6917.988,95.44,541.413,538.293,0.0
52994.0,STARLINK-4256,PAYLOAD,2022-09-28 22:00:00,15.08843251,0.0002102,53.2172,340.491,30.6621,235.6715,-0.0014988,-0.00024065,0.0,0 STARLINK-4256,1 52994U 22076J   22271.91667824 -.00024065  00000-0 -14988-2 0  9994,2 52994  53.2172 340.4910 0002102  30.6621 235.6715 15.08843251  1305,6917.87,95.437,541.19,538.281,0.0
52994.0,STARLINK-4256,PAYLOAD,2022-09-29 06:00:00,15.08836999,0.0002128,53.2173,338.9944,35.581,242.3395,-0.00091885,-0.00014881,0.0,0 STARLINK-4256,1 52994U 22076J   22272.25001157 -.00014881  00000-0 -91885-3 0  9990,2 52994  53.2173 338.9944 0002128  35.5810 242.3395 15.08836999 13489,6917.89,95.438,541.227,538.2819999999998,0.0
52994.0,STARLINK-4256,PAYLOAD,2022-09-29 14:00:01,15.08803753,0.000239,53.2173,337.4996,33.0261,256.4797,0.0030004,0.00047741,0.0,0 STARLINK-4256,1 52994U 22076J   22272.58334491  .00047741  00000-0  30004-2 0  9990,2 52994  53.2173 337.4996 0002390  33.0261 256.4797 15.08803753  1306,6917.991,95.44,541.51,538.203,0.0
52994.0,STARLINK-4256,PAYLOAD,2022-09-29 22:00:00,15.08837012,0.0002234,53.2174,336.0008,34.0584,267.0197,-0.00022638,-3.889e-05,0.0,0 STARLINK-4256,1 52994U 22076J   22272.91667824 -.00003889  00000-0 -22638-3 0  9998,2 52994  53.2174 336.0008 0002234  34.0584 267.0197 15.08837012  1309,6917.89,95.438,541.3,538.2090000000002,0.0
52994.0,STARLINK-4256,PAYLOAD,2022-09-30 06:00:02,15.08858669,0.0002198999999999,53.2175,334.5051,36.9742,275.7579,7.9603e-05,9.79e-06,0.0,0 STARLINK-4256,1 52994U 22076J   22273.25002315  .00000979  00000-0  79603-4 0  9994,2 52994  53.2175 334.5051 0002199  36.9742 275.7579 15.08858669 13638,6917.823,95.436,541.21,538.1669999999998,0.0
52994.0,STARLINK-4256,PAYLOAD,2022-09-30 14:00:01,15.08853657,0.0002398,53.2174,333.0102,32.6257,291.6665,0.00021211,3.09e-05,0.0,0 STARLINK-4256,1 52994U 22076J   22273.58334491  .00003090  00000-0  21211-3 0  9991,2 52994  53.2174 333.0102 0002398  32.6257 291.6665 15.08853657  1309,6917.839,95.437,541.363,538.045,0.0
52994.0,STARLINK-4256,PAYLOAD,2022-09-30 22:00:00,15.08857361,0.0002162,53.2174,331.5122,31.9724,303.9374,-0.0020786999999999,-0.00033235,0.0,0 STARLINK-4256,1 52994U 22076J   22273.91667824 -.00033235  00000-0 -20787-2 0  9999,2 52994  53.2174 331.5122 0002162  31.9724 303.9374 15.08857361  1304,6917.8269999999975,95.436,541.188,538.197,0.0
52994.0,STARLINK-4256,PAYLOAD,2022-10-01 14:00:01,15.08836093,0.0002311999999999,53.2173,328.5208,29.2428,329.8652,0.00049425,7.586e-05,0.0,0 STARLINK-4256,1 52994U 22076J   22274.58334491  .00007586  00000-0  49425-3 0  9993,2 52994  53.2173 328.5208 0002312  29.2428 329.8652 15.08836093 13838,6917.892,95.438,541.357,538.158,0.0
52994.0,STARLINK-4256,PAYLOAD,2022-10-01 22:00:00,15.08828896,0.0002131999999999,53.2172,327.0228,31.572,339.1374,-0.0025239999999999,-0.00040223,0.0,0 STARLINK-4256,1 52994U 22076J   22274.91667824 -.00040223  00000-0 -25240-2 0  9994,2 52994  53.2172 327.0228 0002132  31.5720 339.1374 15.08828896  1300,6917.9140000000025,95.438,541.254,538.304,0.0
